{
  "type": "FeatureCollection",
  "features": [
    {
      "type": "Feature",
      "properties": {
        "norad_id": 33924,
        "name": "COSMOS 2251 DEB",
        "group": "cosmos-2251-debris",
        "lat": -21.73573706585322,
        "lon": 113.14146760220338,
        "alt_km": 1223.3214294287673,
        "timestamp": "2025-12-02T13:52:17.654316+00:00",
        "meta_object_name": "COSMOS 2251 DEB",
        "meta_object_id": "1993-036ED",
        "meta_epoch": "2025-12-02T05:43:33.375072",
        "meta_mean_motion": 13.50188798,
        "meta_eccentricity": 0.04040685,
        "meta_inclination": 73.9131,
        "meta_ra_of_asc_node": 287.0808,
        "meta_arg_of_pericenter": 324.3789,
        "meta_mean_anomaly": 33.0945,
        "meta_ephemeris_type": 0,
        "meta_classification_type": "U",
        "meta_norad_cat_id": 33924,
        "meta_element_set_no": 999,
        "meta_rev_at_epoch": 82597,
        "meta_bstar": 0.0015280834,
        "meta_mean_motion_dot": 1.597e-05,
        "meta_mean_motion_ddot": 0,
        "tle_line1": "1 33924U 93036ED  25336.23858073  .00001597  00000+0  15281-2 0  9997",
        "tle_line2": "2 33924  73.9131 287.0808 0404068 324.3789  33.0945 13.50188798825973"
      },
      "geometry": {
        "type": "Point",
        "coordinates": [
          113.14146760220338,
          -21.73573706585322
        ]
      }
    },
    {
      "type": "Feature",
      "properties": {
        "norad_id": 33928,
        "name": "COSMOS 2251 DEB",
        "group": "cosmos-2251-debris",
        "lat": 11.143744303837682,
        "lon": -111.55981518337826,
        "alt_km": 776.0673858109803,
        "timestamp": "2025-12-02T13:52:17.654326+00:00",
        "meta_object_name": "COSMOS 2251 DEB",
        "meta_object_id": "1993-036EH",
        "meta_epoch": "2025-12-02T06:27:46.278432",
        "meta_mean_motion": 14.47372452,
        "meta_eccentricity": 0.00609532,
        "meta_inclination": 73.9259,
        "meta_ra_of_asc_node": 72.2771,
        "meta_arg_of_pericenter": 8.7185,
        "meta_mean_anomaly": 351.5016,
        "meta_ephemeris_type": 0,
        "meta_classification_type": "U",
        "meta_norad_cat_id": 33928,
        "meta_element_set_no": 999,
        "meta_rev_at_epoch": 88493,
        "meta_bstar": 0.00033167446,
        "meta_mean_motion_dot": 1.215e-05,
        "meta_mean_motion_ddot": 0,
        "tle_line1": "1 33928U 93036EH  25336.26928563  .00001215  00000+0  33167-3 0  9997",
        "tle_line2": "2 33928  73.9259  72.2771 0060953   8.7185 351.5016 14.47372452884932"
      },
      "geometry": {
        "type": "Point",
        "coordinates": [
          -111.55981518337826,
          11.143744303837682
        ]
      }
    },
    {
      "type": "Feature",
      "properties": {
        "norad_id": 33932,
        "name": "COSMOS 2251 DEB",
        "group": "cosmos-2251-debris",
        "lat": -72.09882686704668,
        "lon": -142.92461843565988,
        "alt_km": 791.6722913028489,
        "timestamp": "2025-12-02T13:52:17.654337+00:00",
        "meta_object_name": "COSMOS 2251 DEB",
        "meta_object_id": "1993-036EM",
        "meta_epoch": "2025-12-02T05:59:01.646304",
        "meta_mean_motion": 14.38708331,
        "meta_eccentricity": 0.00348285,
        "meta_inclination": 74.0336,
        "meta_ra_of_asc_node": 335.2658,
        "meta_arg_of_pericenter": 54.5589,
        "meta_mean_anomaly": 305.8808,
        "meta_ephemeris_type": 0,
        "meta_classification_type": "U",
        "meta_norad_cat_id": 33932,
        "meta_element_set_no": 999,
        "meta_rev_at_epoch": 87847,
        "meta_bstar": 0.00057430719,
        "meta_mean_motion_dot": 1.749e-05,
        "meta_mean_motion_ddot": 0,
        "tle_line1": "1 33932U 93036EM  25336.24932461  .00001749  00000+0  57431-3 0  9994",
        "tle_line2": "2 33932  74.0336 335.2658 0034828  54.5589 305.8808 14.38708331878472"
      },
      "geometry": {
        "type": "Point",
        "coordinates": [
          -142.92461843565988,
          -72.09882686704668
        ]
      }
    },
    {
      "type": "Feature",
      "properties": {
        "norad_id": 33933,
        "name": "COSMOS 2251 DEB",
        "group": "cosmos-2251-debris",
        "lat": -54.4856103931666,
        "lon": 55.09679731478677,
        "alt_km": 829.7438990820656,
        "timestamp": "2025-12-02T13:52:17.654347+00:00",
        "meta_object_name": "COSMOS 2251 DEB",
        "meta_object_id": "1993-036EN",
        "meta_epoch": "2025-12-02T07:26:34.157184",
        "meta_mean_motion": 14.33459456,
        "meta_eccentricity": 0.007088,
        "meta_inclination": 74.089,
        "meta_ra_of_asc_node": 79.1437,
        "meta_arg_of_pericenter": 90.6993,
        "meta_mean_anomaly": 270.2281,
        "meta_ephemeris_type": 0,
        "meta_classification_type": "U",
        "meta_norad_cat_id": 33933,
        "meta_element_set_no": 999,
        "meta_rev_at_epoch": 87635,
        "meta_bstar": 0.00043976395,
        "meta_mean_motion_dot": 1.224e-05,
        "meta_mean_motion_ddot": 0,
        "tle_line1": "1 33933U 93036EN  25336.31011756  .00001224  00000+0  43976-3 0  9995",
        "tle_line2": "2 33933  74.0890  79.1437 0070880  90.6993 270.2281 14.33459456876356"
      },
      "geometry": {
        "type": "Point",
        "coordinates": [
          55.09679731478677,
          -54.4856103931666
        ]
      }
    },
    {
      "type": "Feature",
      "properties": {
        "norad_id": 33934,
        "name": "COSMOS 2251 DEB",
        "group": "cosmos-2251-debris",
        "lat": -23.977626920196684,
        "lon": -52.75576961981603,
        "alt_km": 692.8222772711306,
        "timestamp": "2025-12-02T13:52:17.654357+00:00",
        "meta_object_name": "COSMOS 2251 DEB",
        "meta_object_id": "1993-036EP",
        "meta_epoch": "2025-12-02T03:03:36.037152",
        "meta_mean_motion": 14.58948135,
        "meta_eccentricity": 0.00160342,
        "meta_inclination": 74.0363,
        "meta_ra_of_asc_node": 120.7877,
        "meta_arg_of_pericenter": 244.2511,
        "meta_mean_anomaly": 115.6999,
        "meta_ephemeris_type": 0,
        "meta_classification_type": "U",
        "meta_norad_cat_id": 33934,
        "meta_element_set_no": 999,
        "meta_rev_at_epoch": 88584,
        "meta_bstar": 0.001194784,
        "meta_mean_motion_dot": 5.589e-05,
        "meta_mean_motion_ddot": 0,
        "tle_line1": "1 33934U 93036EP  25336.12750043  .00005589  00000+0  11948-2 0  9995",
        "tle_line2": "2 33934  74.0363 120.7877 0016034 244.2511 115.6999 14.58948135885843"
      },
      "geometry": {
        "type": "Point",
        "coordinates": [
          -52.75576961981603,
          -23.977626920196684
        ]
      }
    },
    {
      "type": "Feature",
      "properties": {
        "norad_id": 33936,
        "name": "COSMOS 2251 DEB",
        "group": "cosmos-2251-debris",
        "lat": 74.00180507683567,
        "lon": 145.10592122927784,
        "alt_km": 696.4967371861867,
        "timestamp": "2025-12-02T13:52:17.654367+00:00",
        "meta_object_name": "COSMOS 2251 DEB",
        "meta_object_id": "1993-036ER",
        "meta_epoch": "2025-12-02T06:53:01.891680",
        "meta_mean_motion": 14.60150204,
        "meta_eccentricity": 0.00282055,
        "meta_inclination": 74.0193,
        "meta_ra_of_asc_node": 57.4594,
        "meta_arg_of_pericenter": 214.5734,
        "meta_mean_anomaly": 145.3598,
        "meta_ephemeris_type": 0,
        "meta_classification_type": "U",
        "meta_norad_cat_id": 33936,
        "meta_element_set_no": 999,
        "meta_rev_at_epoch": 88737,
        "meta_bstar": 0.0010353653,
        "meta_mean_motion_dot": 4.986e-05,
        "meta_mean_motion_ddot": 0,
        "tle_line1": "1 33936U 93036ER  25336.28682745  .00004986  00000+0  10354-2 0  9997",
        "tle_line2": "2 33936  74.0193  57.4594 0028205 214.5734 145.3598 14.60150204887378"
      },
      "geometry": {
        "type": "Point",
        "coordinates": [
          145.10592122927784,
          74.00180507683567
        ]
      }
    },
    {
      "type": "Feature",
      "properties": {
        "norad_id": 33938,
        "name": "COSMOS 2251 DEB",
        "group": "cosmos-2251-debris",
        "lat": 68.27924694111366,
        "lon": -87.95653722240175,
        "alt_km": 736.3616447020859,
        "timestamp": "2025-12-02T13:52:17.654377+00:00",
        "meta_object_name": "COSMOS 2251 DEB",
        "meta_object_id": "1993-036ET",
        "meta_epoch": "2025-12-02T04:17:08.373696",
        "meta_mean_motion": 14.46737813,
        "meta_eccentricity": 0.00168402,
        "meta_inclination": 74.0461,
        "meta_ra_of_asc_node": 226.8923,
        "meta_arg_of_pericenter": 309.9112,
        "meta_mean_anomaly": 205.6335,
        "meta_ephemeris_type": 0,
        "meta_classification_type": "U",
        "meta_norad_cat_id": 33938,
        "meta_element_set_no": 999,
        "meta_rev_at_epoch": 88247,
        "meta_bstar": 0.00054705658,
        "meta_mean_motion_dot": 1.956e-05,
        "meta_mean_motion_ddot": 0,
        "tle_line1": "1 33938U 93036ET  25336.17856914  .00001956  00000+0  54706-3 0  9992",
        "tle_line2": "2 33938  74.0461 226.8923 0016840 309.9112 205.6335 14.46737813882473"
      },
      "geometry": {
        "type": "Point",
        "coordinates": [
          -87.95653722240175,
          68.27924694111366
        ]
      }
    }
  ]
}